IRIDIUM 7               
1 24793U 97020B   24308.44307245  .00002404  00000+0  82866-3 0  9991
2 24793  86.3921 271.4674 0002501  92.1461 268.0022 14.35561301439508
IRIDIUM 5               
1 24795U 97020D   24308.59439764  .00013836  00000+0  12412-2 0  9991
2 24795  86.3958 187.4028 0113948 225.4925 133.6949 14.90732372451815
IRIDIUM 4               
1 24796U 97020E   24308.42994062  .00002147  00000+0  72591-3 0  9999
2 24796  86.3920 268.4952 0002252  89.5372 270.6083 14.36475995440051
IRIDIUM 914             
1 24836U 97030A   24308.43244230  .00002881  00000+0  90156-3 0  9993
2 24836  86.3889 277.7817 0001040 128.0332 232.0961 14.40406733574629
IRIDIUM 16              
1 24841U 97030F   24308.47326763  .00002390  00000+0  77983-3 0  9993
2 24841  86.3983 300.1250 0004498  88.6334 271.5379 14.38281059434552
IRIDIUM 911             
1 24842U 97030G   24308.46287080  .00003243  00000+0  88444-3 0  9993
2 24842  86.4411 299.1275 0016162 125.0069 235.2654 14.47043150442433
IRIDIUM 17              
1 24870U 97034B   24308.59923538  .00001956  00000+0  64856-3 0  9997
2 24870  86.3944 329.6497 0003386  66.7304 293.4250 14.37389731431170
IRIDIUM 920             
1 24871U 97034C   24308.52720927  .00002264  00000+0  69661-3 0  9990
2 24871  86.3931 309.4215 0013780 104.0979 256.1754 14.41085881434075
